start=new Date('2021-08-28T00:00:00.000Z').valueOf();
sats=[{"TLE_LINE1":"1 47753U 21017AH  21239.80252506 -.00000999  00000-0 -48159-4 0  9992","GP_ID":"183557654","OBJECT_ID":"2021-017AH","TIME_SYSTEM":"UTC","MEAN_ELEMENT_THEORY":"SGP4","EPOCH":"2021-08-27T19:15:38.165184","INCLINATION":"53.0535","APOAPSIS":"548.423","COUNTRY_CODE":"US","SITE":"AFETR","OBJECT_TYPE":"PAYLOAD","RA_OF_ASC_NODE":"80.6856","REF_FRAME":"TEME","MEAN_MOTION_DOT":"-0.00000999","ARG_OF_PERICENTER":"85.0588","SEMIMAJOR_AXIS":"6925.364","PERIOD":"95.592","ELEMENT_SET_NO":"999","MEAN_ANOMALY":"275.0598","MEAN_MOTION_DDOT":"0.0000000000000","DECAY_DATE":null,"ECCENTRICITY":"0.00017250","BSTAR":"-0.00004815900000","TLE_LINE2":"2 47753  53.0535  80.6856 0001725  85.0588 275.0598 15.06395045 28342","RCS_SIZE":"LARGE","FILE":"3104038","CENTER_NAME":"EARTH","PERIAPSIS":"546.034","EPHEMERIS_TYPE":"0","LAUNCH_DATE":"2021-03-04","OBJECT_NAME":"STARLINK-2170","CLASSIFICATION_TYPE":"U","MEAN_MOTION":"15.06395045","NORAD_CAT_ID":"47753","REV_AT_EPOCH":"2834"},{"SITE":"AFETR","OBJECT_TYPE":"PAYLOAD","COUNTRY_CODE":"US","EPOCH":"2021-08-27T18:33:10.159200","INCLINATION":"53.0550","APOAPSIS":"548.848","TLE_LINE1":"1 47754U 21017AJ  21239.77303425 -.00001011  00000-0 -48934-4 0  9993","GP_ID":"183557372","OBJECT_ID":"2021-017AJ","TIME_SYSTEM":"UTC","MEAN_ELEMENT_THEORY":"SGP4","ELEMENT_SET_NO":"999","MEAN_ANOMALY":"283.9531","SEMIMAJOR_AXIS":"6925.368","ARG_OF_PERICENTER":"76.1717","PERIOD":"95.593","RA_OF_ASC_NODE":"80.8189","REF_FRAME":"TEME","MEAN_MOTION_DOT":"-0.00001011","LAUNCH_DATE":"2021-03-04","BSTAR":"-0.00004893400000","TLE_LINE2":"2 47754  53.0550  80.8189 0002332  76.1717 283.9531 15.06393792 28309","PERIAPSIS":"545.618","FILE":"3104038","RCS_SIZE":"LARGE","CENTER_NAME":"EARTH","EPHEMERIS_TYPE":"0","ECCENTRICITY":"0.00023320","MEAN_MOTION_DDOT":"0.0000000000000","DECAY_DATE":null,"MEAN_MOTION":"15.06393792","NORAD_CAT_ID":"47754","REV_AT_EPOCH":"2830","CLASSIFICATION_TYPE":"U","OBJECT_NAME":"STARLINK-2171"},{"CLASSIFICATION_TYPE":"U","OBJECT_NAME":"STARLINK-2172","NORAD_CAT_ID":"47755","MEAN_MOTION":"15.06396969","REV_AT_EPOCH":"2837","ECCENTRICITY":"0.00020340","MEAN_MOTION_DDOT":"0.0000000000000","DECAY_DATE":null,"LAUNCH_DATE":"2021-03-04","TLE_LINE2":"2 47755  53.0576  75.5802 0002034 104.2547 255.8668 15.06396969 28379","BSTAR":"0.00007586800000","FILE":"3104038","CENTER_NAME":"EARTH","RCS_SIZE":"LARGE","PERIAPSIS":"545.814","EPHEMERIS_TYPE":"0","MEAN_MOTION_DOT":"0.00000848","RA_OF_ASC_NODE":"75.5802","REF_FRAME":"TEME","MEAN_ANOMALY":"255.8668","ELEMENT_SET_NO":"999","PERIOD":"95.592","ARG_OF_PERICENTER":"104.2547","SEMIMAJOR_AXIS":"6925.358","APOAPSIS":"548.631","INCLINATION":"53.0576","EPOCH":"2021-08-27T19:49:26.431968","GP_ID":"183556139","TLE_LINE1":"1 47755U 21017AK  21239.82600037  .00000848  00000-0  75868-4 0  9990","MEAN_ELEMENT_THEORY":"SGP4","TIME_SYSTEM":"UTC","OBJECT_ID":"2021-017AK","OBJECT_TYPE":"PAYLOAD","SITE":"AFETR","COUNTRY_CODE":"US"},{"REV_AT_EPOCH":"2835","NORAD_CAT_ID":"47756","MEAN_MOTION":"15.06399311","OBJECT_NAME":"STARLINK-2174","CLASSIFICATION_TYPE":"U","FILE":"3104038","RCS_SIZE":"LARGE","EPHEMERIS_TYPE":"0","PERIAPSIS":"545.719","CENTER_NAME":"EARTH","TLE_LINE2":"2 47756  53.0560  80.5403 0002161  76.6077 283.5153 15.06399311 28356","BSTAR":"0.00006383900000","LAUNCH_DATE":"2021-03-04","DECAY_DATE":null,"MEAN_MOTION_DDOT":"0.0000000000000","ECCENTRICITY":"0.00021610","PERIOD":"95.592","SEMIMAJOR_AXIS":"6925.351","ARG_OF_PERICENTER":"76.6077","MEAN_ANOMALY":"283.5153","ELEMENT_SET_NO":"999","MEAN_MOTION_DOT":"0.00000669","RA_OF_ASC_NODE":"80.5403","REF_FRAME":"TEME","COUNTRY_CODE":"US","OBJECT_TYPE":"PAYLOAD","SITE":"AFETR","MEAN_ELEMENT_THEORY":"SGP4","OBJECT_ID":"2021-017AL","TIME_SYSTEM":"UTC","GP_ID":"183556903","TLE_LINE1":"1 47756U 21017AL  21239.83570145  .00000669  00000-0  63839-4 0  9994","APOAPSIS":"548.712","INCLINATION":"53.0560","EPOCH":"2021-08-27T20:03:24.605280"},{"OBJECT_NAME":"STARLINK-2175","CLASSIFICATION_TYPE":"U","REV_AT_EPOCH":"2829","NORAD_CAT_ID":"47757","MEAN_MOTION":"15.06387629","DECAY_DATE":null,"MEAN_MOTION_DDOT":"0.0000000000000","ECCENTRICITY":"0.00021180","RCS_SIZE":"LARGE","FILE":"3104038","CENTER_NAME":"EARTH","PERIAPSIS":"545.785","EPHEMERIS_TYPE":"0","TLE_LINE2":"2 47757  53.0564  80.5991 0002118  94.4076 265.7155 15.06387629 28298","BSTAR":"-0.00006697700000","LAUNCH_DATE":"2021-03-04","MEAN_MOTION_DOT":"-0.00001279","RA_OF_ASC_NODE":"80.5991","REF_FRAME":"TEME","PERIOD":"95.593","SEMIMAJOR_AXIS":"6925.386","ARG_OF_PERICENTER":"94.4076","MEAN_ANOMALY":"265.7155","ELEMENT_SET_NO":"999","MEAN_ELEMENT_THEORY":"SGP4","TIME_SYSTEM":"UTC","OBJECT_ID":"2021-017AM","GP_ID":"183557140","TLE_LINE1":"1 47757U 21017AM  21239.82095304 -.00001279  00000-0 -66977-4 0  9999","APOAPSIS":"548.718","INCLINATION":"53.0564","EPOCH":"2021-08-27T19:42:10.342656","COUNTRY_CODE":"US","OBJECT_TYPE":"PAYLOAD","SITE":"AFETR"},{"SEMIMAJOR_AXIS":"6925.341","ARG_OF_PERICENTER":"125.3124","PERIOD":"95.592","MEAN_ANOMALY":"234.8747","ELEMENT_SET_NO":"999","RA_OF_ASC_NODE":"80.5823","REF_FRAME":"TEME","MEAN_MOTION_DOT":"0.00000604","COUNTRY_CODE":"US","SITE":"AFETR","OBJECT_TYPE":"PAYLOAD","TLE_LINE1":"1 47758U 21017AN  21239.82465318  .00000604  00000-0  59608-4 0  9998","GP_ID":"183557887","TIME_SYSTEM":"UTC","OBJECT_ID":"2021-017AN","MEAN_ELEMENT_THEORY":"SGP4","EPOCH":"2021-08-27T19:47:30.034752","APOAPSIS":"553.730","INCLINATION":"53.0576","MEAN_MOTION":"15.06402598","NORAD_CAT_ID":"47758","REV_AT_EPOCH":"2835","OBJECT_NAME":"STARLINK-2176","CLASSIFICATION_TYPE":"U","BSTAR":"0.00005960800000","TLE_LINE2":"2 47758  53.0576  80.5823 0009421 125.3124 234.8747 15.06402598 28352","PERIAPSIS":"540.681","FILE":"3104038","RCS_SIZE":"LARGE","CENTER_NAME":"EARTH","EPHEMERIS_TYPE":"0","LAUNCH_DATE":"2021-03-04","MEAN_MOTION_DDOT":"0.0000000000000","DECAY_DATE":null,"ECCENTRICITY":"0.00094210"},{"SITE":"AFETR","OBJECT_TYPE":"PAYLOAD","COUNTRY_CODE":"US","EPOCH":"2021-08-27T18:57:08.672544","APOAPSIS":"476.529","INCLINATION":"53.0588","OBJECT_ID":"2021-017AP","TIME_SYSTEM":"UTC","MEAN_ELEMENT_THEORY":"SGP4","TLE_LINE1":"1 47759U 21017AP  21239.78968371  .00010076  00000-0  35036-3 0  9993","GP_ID":"183556654","MEAN_ANOMALY":"259.4932","ELEMENT_SET_NO":"999","SEMIMAJOR_AXIS":"6852.936","ARG_OF_PERICENTER":"100.6352","PERIOD":"94.097","RA_OF_ASC_NODE":"76.4350","REF_FRAME":"TEME","MEAN_MOTION_DOT":"0.00010076","LAUNCH_DATE":"2021-03-04","PERIAPSIS":"473.073","FILE":"3104038","RCS_SIZE":"LARGE","CENTER_NAME":"EARTH","EPHEMERIS_TYPE":"0","BSTAR":"0.00035036000000","TLE_LINE2":"2 47759  53.0588  76.4350 0002522 100.6352 259.4932 15.30339304 28393","ECCENTRICITY":"0.00025220","DECAY_DATE":null,"MEAN_MOTION_DDOT":"0.0000000000000","REV_AT_EPOCH":"2839","MEAN_MOTION":"15.30339304","NORAD_CAT_ID":"47759","CLASSIFICATION_TYPE":"U","OBJECT_NAME":"STARLINK-2177"},{"OBJECT_TYPE":"PAYLOAD","SITE":"AFETR","COUNTRY_CODE":"US","INCLINATION":"53.0549","APOAPSIS":"548.972","EPOCH":"2021-08-27T20:28:37.064928","GP_ID":"183556389","TLE_LINE1":"1 47760U 21017AQ  21239.85320677 -.00000536  00000-0 -17065-4 0  9999","MEAN_ELEMENT_THEORY":"SGP4","OBJECT_ID":"2021-017AQ","TIME_SYSTEM":"UTC","MEAN_ANOMALY":"273.3383","ELEMENT_SET_NO":"999","PERIOD":"95.592","SEMIMAJOR_AXIS":"6925.351","ARG_OF_PERICENTER":"86.7896","MEAN_MOTION_DOT":"-0.00000536","RA_OF_ASC_NODE":"90.4295","REF_FRAME":"TEME","LAUNCH_DATE":"2021-03-04","TLE_LINE2":"2 47760  53.0549  90.4295 0002536  86.7896 273.3383 15.06399209 28194","BSTAR":"-0.00001706500000","RCS_SIZE":"LARGE","FILE":"3104038","PERIAPSIS":"545.460","CENTER_NAME":"EARTH","EPHEMERIS_TYPE":"0","ECCENTRICITY":"0.00025360","MEAN_MOTION_DDOT":"0.0000000000000","DECAY_DATE":null,"NORAD_CAT_ID":"47760","MEAN_MOTION":"15.06399209","REV_AT_EPOCH":"2819","CLASSIFICATION_TYPE":"U","OBJECT_NAME":"STARLINK-2178"},{"COUNTRY_CODE":"US","OBJECT_TYPE":"PAYLOAD","SITE":"AFETR","MEAN_ELEMENT_THEORY":"SGP4","TIME_SYSTEM":"UTC","OBJECT_ID":"2021-017AR","GP_ID":"183557655","TLE_LINE1":"1 47761U 21017AR  21239.81726993  .00000922  00000-0  80819-4 0  9991","APOAPSIS":"548.723","INCLINATION":"53.0568","EPOCH":"2021-08-27T19:36:52.121952","PERIOD":"95.592","SEMIMAJOR_AXIS":"6925.358","ARG_OF_PERICENTER":"87.3979","MEAN_ANOMALY":"272.7258","ELEMENT_SET_NO":"999","MEAN_MOTION_DOT":"0.00000922","RA_OF_ASC_NODE":"80.6335","REF_FRAME":"TEME","FILE":"3104038","CENTER_NAME":"EARTH","RCS_SIZE":"LARGE","PERIAPSIS":"545.723","EPHEMERIS_TYPE":"0","TLE_LINE2":"2 47761  53.0568  80.6335 0002166  87.3979 272.7258 15.06396854 28300","BSTAR":"0.00008081900000","LAUNCH_DATE":"2021-03-04","DECAY_DATE":null,"MEAN_MOTION_DDOT":"0.0000000000000","ECCENTRICITY":"0.00021660","REV_AT_EPOCH":"2830","NORAD_CAT_ID":"47761","MEAN_MOTION":"15.06396854","OBJECT_NAME":"STARLINK-2179","CLASSIFICATION_TYPE":"U"},{"REV_AT_EPOCH":"2810","NORAD_CAT_ID":"47762","MEAN_MOTION":"15.06402296","CLASSIFICATION_TYPE":"U","OBJECT_NAME":"STARLINK-2180","LAUNCH_DATE":"2021-03-04","FILE":"3104038","EPHEMERIS_TYPE":"0","RCS_SIZE":"LARGE","PERIAPSIS":"545.799","CENTER_NAME":"EARTH","TLE_LINE2":"2 47762  53.0562  95.8126 0002032  88.5068 271.6154 15.06402296 28104","BSTAR":"0.00008552100000","ECCENTRICITY":"0.00020320","DECAY_DATE":null,"MEAN_MOTION_DDOT":"0.0000000000000","ELEMENT_SET_NO":"999","MEAN_ANOMALY":"271.6154","PERIOD":"95.592","SEMIMAJOR_AXIS":"6925.342","ARG_OF_PERICENTER":"88.5068","MEAN_MOTION_DOT":"0.00000992","REF_FRAME":"TEME","RA_OF_ASC_NODE":"95.8126","OBJECT_TYPE":"PAYLOAD","SITE":"AFETR","COUNTRY_CODE":"US","APOAPSIS":"548.614","INCLINATION":"53.0562","EPOCH":"2021-08-27T18:37:46.869888","MEAN_ELEMENT_THEORY":"SGP4","TIME_SYSTEM":"UTC","OBJECT_ID":"2021-017AS","GP_ID":"183557373","TLE_LINE1":"1 47762U 21017AS  21239.77623692  .00000992  00000-0  85521-4 0  9991"}];
